IRIDIUM 33 DEB          
1 34488U 97051GD  26053.04643645  .01238203  00000+0  64727-2 0  9993
2 34488  86.3081 269.5420 0004770  70.8002 289.3788 15.78089963903416
IRIDIUM 33 DEB          
1 34497U 97051GN  26060.37736337  .00002181  00000+0  84493-3 0  9994
2 34497  86.2798  18.7885 0082500  84.6063  44.9371 14.27743173880056
IRIDIUM 33 DEB          
1 34508U 97051GZ  26060.47725498  .00004135  00000+0  13032-2 0  9995
2 34508  86.3654  69.2236 0061785 275.4792  83.9361 14.39060328884416
IRIDIUM 33 DEB          
1 34521U 97051HN  26060.25526505  .00008420  00000+0  15841-2 0  9995
2 34521  86.3830 355.9538 0005394  27.3224 332.8271 14.64511286896214
IRIDIUM 33 DEB          
1 34540U 97051JH  26060.03723415  .00009381  00000+0  13189-2 0  9991
2 34540  86.3060 271.7526 0014366 257.1755 260.4475 14.77206339901766
IRIDIUM 33 DEB          
1 34651U 97051KC  26059.88964425  .00006877  00000+0  25640-2 0  9995
2 34651  86.2795 107.2789 0131979 312.4612  46.5481 14.27138732870103
IRIDIUM 33 DEB          
1 34690U 97051KM  26060.31992326  .00001905  00000+0  43333-3 0  9996
2 34690  86.3813   2.8296 0012273 105.1381  48.3353 14.55423674892370
IRIDIUM 33 DEB          
1 34693U 97051KQ  26055.99059176  .01322234  00000+0  68577-2 0  9992
2 34693  86.2833 265.9163 0003939  44.5223 315.6368 15.78525000900614
IRIDIUM 33 DEB          
1 34696U 97051KT  26060.29304468  .00042020  00000+0  65457-2 0  9996
2 34696  86.1830 350.8005 0057658 263.1897 252.9171 14.71622712878254
IRIDIUM 33 DEB          
1 34765U 97051LJ  26060.28051297  .00001661  00000+0  51332-3 0  9995
2 34765  86.3439 359.0561 0015383 327.5482 184.8506 14.40724801887444
IRIDIUM 33 DEB          
1 34870U 97051MQ  26060.07328569  .00008638  00000+0  11846-2 0  9994
2 34870  86.3068 278.1544 0014882 282.9912 231.6246 14.78248832900675
IRIDIUM 33 DEB          
1 34896U 97051MY  26060.39168001  .00004661  00000+0  82065-3 0  9994
2 34896  86.3272 291.3948 0024518 312.9821 171.3817 14.67202311887729
IRIDIUM 33 DEB          
1 34985U 97051NR  26060.37592812  .00003104  00000+0  93054-3 0  9993
2 34985  86.3715  23.3097 0020483 332.0418 181.1815 14.42416203883082
IRIDIUM 33 DEB          
1 35051U 97051NX  26060.05408656  .00002376  00000+0  63389-3 0  9993
2 35051  86.3283 334.7311 0007605 172.4725 187.6594 14.48061402881292
IRIDIUM 33 DEB          
1 35052U 97051NY  26059.76484081  .00000628  00000+0  19874-3 0  9994
2 35052  86.3360 347.0350 0011167 176.2680 183.8604 14.38614505883973
IRIDIUM 33 DEB          
1 35297U 97051PM  26057.20058014  .00002247  00000+0  63111-3 0  9997
2 35297  86.3869  30.5259 0012987 253.5255 106.4520 14.45550738715166
IRIDIUM 33 DEB          
1 35299U 97051PP  26060.30722387  .00004583  00000+0  13796-2 0  9993
2 35299  86.2917 358.9660 0053366 201.5742 313.1170 14.41596427874620
IRIDIUM 33 DEB          
1 35480U 97051QA  26059.23036048  .00002592  00000+0  66072-3 0  9991
2 35480  86.3614 351.3129 0012184 197.5390 162.5396 14.50231696881549
