OBJECT_NAME,OBJECT_ID,EPOCH,MEAN_MOTION,ECCENTRICITY,INCLINATION,RA_OF_ASC_NODE,ARG_OF_PERICENTER,MEAN_ANOMALY,EPHEMERIS_TYPE,CLASSIFICATION_TYPE,NORAD_CAT_ID,ELEMENT_SET_NO,REV_AT_EPOCH,BSTAR,MEAN_MOTION_DOT,MEAN_MOTION_DDOT
IRIDIUM 33 DEB,1997-051GD,2026-02-22T01:06:52.109280,15.78089963,.00047702,86.3081,269.5420,70.8002,289.3788,0,U,34488,999,90341,.64727089E-2,.1238203E-1,0
IRIDIUM 33 DEB,1997-051GN,2026-03-01T09:03:24.195168,14.27743173,.00825,86.2798,18.7885,84.6063,44.9371,0,U,34497,999,88005,.84493E-3,.2181E-4,0
IRIDIUM 33 DEB,1997-051GZ,2026-03-01T11:27:14.830272,14.39060328,.0061785,86.3654,69.2236,275.4792,83.9361,0,U,34508,999,88441,.13032E-2,.4135E-4,0
IRIDIUM 33 DEB,1997-051HN,2026-03-01T06:07:34.900320,14.64511286,.0005394,86.3830,355.9538,27.3224,332.8271,0,U,34521,999,89621,.15841E-2,.842E-4,0
IRIDIUM 33 DEB,1997-051JH,2026-03-01T00:53:37.030560,14.77206339,.00143663,86.3060,271.7526,257.1755,260.4475,0,U,34540,999,90176,.13189127E-2,.9381E-4,0
IRIDIUM 33 DEB,1997-051KC,2026-02-28T21:21:05.263200,14.27138732,.0131979,86.2795,107.2789,312.4612,46.5481,0,U,34651,999,87010,.2564E-2,.6877E-4,0
IRIDIUM 33 DEB,1997-051KM,2026-03-01T07:40:41.369664,14.55423674,.0012273,86.3813,2.8296,105.1381,48.3353,0,U,34690,999,89237,.43333E-3,.1905E-4,0
IRIDIUM 33 DEB,1997-051KQ,2026-02-24T23:46:27.128064,15.78525000,.00039393,86.2833,265.9163,44.5223,315.6368,0,U,34693,999,90061,.68576941E-2,.1322234E-1,0
IRIDIUM 33 DEB,1997-051KT,2026-03-01T07:01:59.060352,14.71622712,.0057658,86.1830,350.8005,263.1897,252.9171,0,U,34696,999,87825,.65457E-2,.4202E-3,0
IRIDIUM 33 DEB,1997-051LJ,2026-03-01T06:43:56.320608,14.40724801,.0015383,86.3439,359.0561,327.5482,184.8506,0,U,34765,999,88744,.51332E-3,.1661E-4,0
IRIDIUM 33 DEB,1997-051MQ,2026-03-01T01:45:31.883616,14.78248832,.00148825,86.3068,278.1544,282.9912,231.6246,0,U,34870,999,90067,.11845997E-2,.8638E-4,0
IRIDIUM 33 DEB,1997-051MY,2026-03-01T09:24:01.152864,14.67202311,.0024518,86.3272,291.3948,312.9821,171.3817,0,U,34896,999,88772,.82065E-3,.4661E-4,0
IRIDIUM 33 DEB,1997-051NR,2026-03-01T09:01:20.189568,14.42416203,.0020483,86.3715,23.3097,332.0418,181.1815,0,U,34985,999,88308,.93054E-3,.3104E-4,0
IRIDIUM 33 DEB,1997-051NX,2026-03-01T01:17:53.078784,14.48061402,.00076052,86.3283,334.7311,172.4725,187.6594,0,U,35051,999,88129,.6338936E-3,.2376E-4,0
IRIDIUM 33 DEB,1997-051NY,2026-02-28T18:21:22.245984,14.38614505,.00111673,86.3360,347.0350,176.2680,183.8604,0,U,35052,999,88397,.19873636E-3,.628E-5,0
IRIDIUM 33 DEB,1997-051PM,2026-02-26T04:48:50.124096,14.45550738,.0012987,86.3869,30.5259,253.5255,106.4520,0,U,35297,999,71516,.63111E-3,.2247E-4,0
IRIDIUM 33 DEB,1997-051PP,2026-03-01T07:22:24.142368,14.41596427,.0053366,86.2917,358.9660,201.5742,313.1170,0,U,35299,999,87462,.13796E-2,.4583E-4,0
IRIDIUM 33 DEB,1997-051QA,2026-02-28T05:31:43.145472,14.50231696,.0012184,86.3614,351.3129,197.5390,162.5396,0,U,35480,999,88154,.66072E-3,.2592E-4,0
